[{"OBJECT_NAME":"STARLINK-33954","OBJECT_ID":"2025-093AD","EPOCH":"2026-03-09T01:33:58.947840","MEAN_MOTION":15.27604832,"ECCENTRICITY":0.0001545,"INCLINATION":42.9998,"RA_OF_ASC_NODE":81.666,"ARG_OF_PERICENTER":282.4069,"MEAN_ANOMALY":77.6609,"EPHEMERIS_TYPE":0,"CLASSIFICATION_TYPE":"U","NORAD_CAT_ID":63863,"ELEMENT_SET_NO":999,"REV_AT_EPOCH":4765,"BSTAR":0.0014369752,"MEAN_MOTION_DOT":0.00039523,"MEAN_MOTION_DDOT":0},{"OBJECT_NAME":"REAL","OBJECT_ID":"2025-154G","EPOCH":"2026-03-09T17:20:09.670560","MEAN_MOTION":15.28408058,"ECCENTRICITY":0.00018528,"INCLINATION":97.4133,"RA_OF_ASC_NODE":137.2581,"ARG_OF_PERICENTER":118.5876,"MEAN_ANOMALY":241.555,"EPHEMERIS_TYPE":0,"CLASSIFICATION_TYPE":"U","NORAD_CAT_ID":64875,"ELEMENT_SET_NO":999,"REV_AT_EPOCH":3483,"BSTAR":0.0008290401,"MEAN_MOTION_DOT":0.00022901,"MEAN_MOTION_DDOT":0}]
