STARLINK-33954          
1 63863U 25093AD  26068.06526560  .00039523  00000+0  14370-2 0  9995
2 63863  42.9998  81.6660 0001545 282.4069  77.6609 15.27604832 47657
REAL                    
1 64875U 25154G   26068.72233414  .00022901  00000+0  82904-3 0  9994
2 64875  97.4133 137.2581 0001853 118.5876 241.5550 15.28408058 34830
